ONEWEB-0706             
1 61611U 24188T   25223.58256481  .00010780  00000+0  30817-1 0  9996
2 61611  87.8781  98.0223 0001139  75.0796 285.0457 13.10356190 42835
ONEWEB-0707             
1 61612U 24188U   25223.58916437 -.00000216  00000+0 -65499-3 0  9992
2 61612  87.8779  97.9867 0001139  73.9877 286.1376 13.10373135 42775
ONEWEB-0708             
1 61613U 24188V   25223.60742441 -.00000491  00000+0 -14435-2 0  9996
2 61613  87.8818  98.0173 0001034  96.9626 263.1619 13.10374023 42753
